COSMOS 2507 (RODNIK-S *)
1 40920U 15050A   26190.28769616 -.00000065  00000+0 -53949-3 0  9994
2 40920  82.4911  65.9087 0009208 307.5327  52.4915 12.42927099489601
COSMOS 2508 (RODNIK-S *)
1 40921U 15050B   26190.32342104 -.00000097  00000+0 -76905-3 0  9991
2 40921  82.4864  64.3831 0014219 339.9626  20.0893 12.42914593489597
COSMOS 2509 (RODNIK-S *)
1 40922U 15050C   26190.26380667 -.00000097  00000+0 -76891-3 0  9995
2 40922  82.4871  64.5249 0014881 357.1122   2.9870 12.42884097489622
LINGQIAO VIDEO A        
1 40959U 15057B   26190.30532336  .00000694  00000+0  10409-3 0  9993
2 40959  97.6634 184.0173 0016151 192.4132 167.6684 14.77423173578674
LINGQIAO VIDEO B        
1 40960U 15057C   26190.28041054  .00000735  00000+0  10960-3 0  9992
2 40960  97.6598 185.1513 0016307 192.5366 167.5442 14.77528297578717
JILIN-1                 
1 40961U 15057D   26190.28403830  .00000585  00000+0  87292-4 0  9993
2 40961  97.6515 188.5545 0016673 186.0684 174.0329 14.78195716578877
FOX-1A (AO-85)          
1 40967U 15058D   26190.01700611  .00001641  00000+0  15542-3 0  9990
2 40967  64.7733 211.1378 0131891  48.1465 313.0815 14.91065127116827
SINOD-D 1               
1 40968U 15058E   26190.00525422  .00002945  00000+0  23989-3 0  9997
2 40968  64.7734 190.5790 0120564  44.5324 316.5402 14.96049923119921
ELEKTRO-L 2             
1 41105U 15074A   26189.42539329 -.00000107  00000+0  00000+0 0  9998
2 41105   6.7437  70.2631 0000693 230.4230 124.3160  1.00273098 38717
DAMPE                   
1 41173U 15078A   26190.26237340  .00001114  00000+0  39940-4 0  9997
2 41173  97.4567 195.8388 0012246   6.7079 353.4323 15.30844082587921
ORBCOMM FM110           
1 41182U 15081D   26190.22459969  .00000335  00000+0  10694-3 0  9998
2 41182  47.0014 257.2427 0003297 196.7550 163.3228 14.58913742560849
ORBCOMM FM112           
1 41184U 15081F   26190.26310622  .00000489  00000+0  13947-3 0  9990
2 41184  46.9976 165.8528 0003997 303.9343  56.1162 14.58932538562179
ORBCOMM FM113           
1 41185U 15081G   26190.30896501  .00000236  00000+0  86114-4 0  9998
2 41185  46.9992 166.0233 0002481 300.1453  59.9187 14.58878238562165
ORBCOMM FM108           
1 41187U 15081J   26190.13410208  .00000426  00000+0  12630-3 0  9999
2 41187  47.0051  78.4302 0002927 300.2625  59.7971 14.58904401563280
ORBCOMM FM117           
1 41188U 15081K   26189.07250359  .00000414  00000+0  12376-3 0  9994
2 41188  47.0014  82.0783 0003434 302.2374  57.8178 14.58889920563175
ORBCOMM FM116           
1 41189U 15081L   26189.73754067  .00000129  00000+0  63411-4 0  9993
2 41189  47.0009 168.7225 0001330 212.2170 147.8635 14.58901693562089
ZIYUAN 3-02 (ZY 3-02)   
1 41556U 16033A   26190.29027591  .00003846  00000+0  17417-3 0  9990
2 41556  97.3828 265.6394 0013441 205.9322 154.1242 15.21397268561343
CARTOSAT-2C             
1 41599U 16040A   26190.32275100  .00002032  00000+0  99586-4 0  9994
2 41599  97.4469 249.9952 0009925  62.7988 297.4257 15.19233417557070
LAPAN-A3                
1 41603U 16040E   26190.31648035  .00002384  00000+0  76465-4 0  9991
2 41603  97.1499 185.7376 0008390 301.8479  58.1947 15.33253630558209
GAOFEN-3                
1 41727U 16049A   26190.28492384  .00000150  00000+0  58640-4 0  9991
2 41727  98.4020 197.7374 0001760  90.0645 270.0746 14.42218672521834
CAS-2T & KS-1Q          
1 41847U 16066G   26190.12607526  .00000881  00000+0  13108-3 0  9992
2 41847  98.3814 265.6112 0342541  63.1325 300.4448 14.44761366507963
YUNHAI-1 01             
1 41857U 16068A   26190.30741734  .00000307  00000+0  12902-3 0  9999
2 41857  98.5852 201.1076 0003595   5.7940 354.3285 14.32719187504998
RESOURCESAT-2A          
1 41877U 16074A   26190.31162995  .00000154  00000+0  90529-4 0  9997
2 41877  98.7517 263.6349 0002704  41.5087 318.6295 14.21608361497441
TANSAT                  
1 41898U 16081A   26190.31685244  .00000473  00000+0  10893-3 0  9994
2 41898  98.5373 191.2293 0019175 239.4319 120.4988 14.59969557507855
